OBJECT_NAME,OBJECT_ID,EPOCH,MEAN_MOTION,ECCENTRICITY,INCLINATION,RA_OF_ASC_NODE,ARG_OF_PERICENTER,MEAN_ANOMALY,EPHEMERIS_TYPE,CLASSIFICATION_TYPE,NORAD_CAT_ID,ELEMENT_SET_NO,REV_AT_EPOCH,BSTAR,MEAN_MOTION_DOT,MEAN_MOTION_DDOT
SL-16 R/B,1996-051B,2026-06-17T04:09:07.132608,14.12445851,.0015476,70.7641,324.6786,336.9260,23.1162,0,U,24298,999,53569,.8468E-4,.107E-5,0
ORBVIEW 2 (SEASTAR),1997-037A,2026-06-17T02:09:07.838784,14.35553206,.0003191,98.8687,335.1060,116.3244,243.8269,0,U,24883,999,52273,.70466E-4,.156E-5,0
SL-16 R/B,1998-043G,2026-06-17T03:39:30.841056,14.26068568,.0010951,98.8364,122.3113,86.4279,273.8153,0,U,25400,999,45316,.31817E-4,.31E-6,0
SL-16 R/B,1998-045B,2026-06-17T03:57:59.457600,14.16203194,.0009388,71.0117,332.3757,241.6562,118.3615,0,U,25407,999,44118,-.97482E-4,-.241E-5,0
ISS (ZARYA),1998-067A,2026-06-17T04:32:52.099296,15.49273435,.0004737,51.6332,300.0813,195.1146,164.9702,0,U,25544,999,57175,.17172E-3,.9113E-4,0
CZ-4B R/B,1999-025C,2026-06-17T01:37:07.226400,14.18283502,.0038065,98.6484,209.9089,60.0090,0.7228,0,U,25732,999,40225,.37865E-4,.36E-6,0
OKEAN-O,1999-039A,2026-06-17T01:51:09.970272,14.80467115,.0001609,97.9317,226.8764,72.4255,287.7132,0,U,25860,999,44909,.70973E-4,.491E-5,0
SL-16 R/B,1999-039B,2026-06-17T02:22:40.099872,14.81845031,.0013486,97.9838,226.9623,297.2059,62.7779,0,U,25861,999,45158,.54261E-4,.375E-5,0
DELTA 2 R/B,1999-041E,2026-06-16T23:06:50.958720,14.12015836,.0500847,51.7656,264.6920,281.3544,73.1539,0,U,25876,999,37705,.11675E-3,.49E-5,0
HELIOS 1B,1999-064A,2026-06-16T23:26:44.077920,14.88006186,.0002492,98.1615,73.1106,91.5488,268.6013,0,U,25977,999,70002,.12911E-3,.1126E-4,0
TERRA,1999-068A,2026-06-17T03:48:52.035840,14.61103081,.000158,97.9456,217.7063,189.5468,254.9608,0,U,25994,999,40960,.73529E-4,.317E-5,0
SL-16 R/B,2000-006B,2026-06-16T22:10:24.109824,14.15834049,.0015515,71.0020,249.1788,23.4398,336.7429,0,U,26070,999,36260,-.19236E-5,-.52E-6,0
TITAN 4B R/B,2000-047B,2026-06-17T03:02:09.131712,15.10196811,.0045733,67.9882,120.7439,287.1768,72.4377,0,U,26474,999,40792,.1487E-3,.2354E-4,0
ENVISAT,2002-009A,2026-06-17T02:24:23.995008,14.39064784,.0001349,98.3834,119.4207,88.8980,281.4078,0,U,27386,999,27347,.34577E-4,.64E-6,0
IDEFIX & ARIANE 42P R/B,2002-021B,2026-06-16T20:23:51.455904,14.31081947,.0010585,98.5943,105.3367,255.0333,104.9678,0,U,27422,999,25820,.79281E-4,.165E-5,0
AQUA,2002-022A,2026-06-17T04:42:56.761056,14.62158088,.0001104,98.4277,137.4794,53.1321,36.7458,0,U,27424,999,28327,.13132E-3,.611E-5,0
CZ-4B R/B,2002-024C,2026-06-17T02:23:15.663840,14.14564418,.0051205,98.8700,220.9202,100.4958,323.7745,0,U,27432,999,24329,.3771E-4,.29E-6,0
MIDORI II (ADEOS-II),2002-056A,2026-06-17T03:18:48.841056,14.29349550,.0002211,98.7878,127.3974,77.1788,282.9640,0,U,27597,999,22450,.94297E-4,.195E-5,0
H-2A R/B,2002-056E,2026-06-17T03:23:44.372256,14.33821985,.0069177,98.3312,124.8176,224.7066,145.3259,0,U,27601,999,22836,.65105E-4,.144E-5,0
CZ-4B R/B,2003-049C,2026-06-17T00:35:55.171104,14.55100075,.0046969,98.6896,166.8650,289.1061,70.5052,0,U,28059,999,20104,.63145E-4,.224E-5,0
CZ-2C R/B,2004-012C,2026-06-16T18:43:03.808416,15.78917579,.0009372,97.7078,243.3955,285.2817,74.7413,0,U,28222,999,21983,.49561E-3,.88112E-3,0
SL-16 R/B,2004-021B,2026-06-17T00:28:35.878944,14.14608401,.0007276,71.0008,24.0403,255.1788,104.8528,0,U,28353,999,13688,-.10448E-3,-.249E-5,0
CZ-4B R/B,2004-035C,2026-06-17T01:36:49.467744,15.30626036,.00299,97.3361,201.1420,338.4057,21.5920,0,U,28415,999,19510,.21899E-3,.6493E-4,0
CZ-2C R/B,2004-046B,2026-06-16T23:32:52.020096,14.27026447,.0138474,98.1945,76.7749,220.8808,138.1925,0,U,28480,999,12266,.37535E-4,.59E-6,0
ARIANE 5 R/B,2004-049H,2026-06-17T01:30:33.194016,14.85448874,.0084514,98.2720,340.3109,29.8340,330.7653,0,U,28499,999,16054,.63019E-4,.514E-5,0
CZ-2D R/B,2005-024B,2026-06-17T00:40:23.117376,15.69538064,.000345,97.3475,187.4483,54.5797,305.5787,0,U,28738,999,15531,.44193E-3,.52152E-3,0
ALOS (DAICHI),2006-002A,2026-06-17T03:48:21.883104,14.70050431,.0001459,98.1323,123.7260,57.5521,302.5826,0,U,28931,999,8809,.15249E-3,.866E-5,0
H-2A R/B,2006-002B,2026-06-17T04:28:22.190016,15.18059549,.0049587,98.2566,324.0147,262.3080,97.2519,0,U,28932,999,10952,.26915E-3,.5575E-4,0
RESURS-DK 1,2006-021A,2026-06-16T21:40:32.558304,15.13218071,.0006912,69.9342,340.2878,291.8758,68.1672,0,U,29228,999,10253,.11317E-3,.1907E-4,0
CZ-4B R/B,2006-046C,2026-06-17T01:19:18.244992,15.17783822,.0030977,97.5448,212.6626,283.1867,76.5911,0,U,29507,999,7511,.16538E-3,.3311E-4,0
CZ-2C R/B,2007-010B,2026-06-17T01:26:17.601216,14.20276159,.0059028,98.4100,276.4170,6.4996,353.6934,0,U,31114,999,99382,.49609E-4,.67E-6,0
