SL-16 R/B               
1 24298U 96051B   26168.17299922  .00000107  00000+0  84680-4 0  9997
2 24298  70.7641 324.6786 0015476 336.9260  23.1162 14.12445851535698
ORBVIEW 2 (SEASTAR)     
1 24883U 97037A   26168.08967406  .00000156  00000+0  70466-4 0  9992
2 24883  98.8687 335.1060 0003191 116.3244 243.8269 14.35553206522733
SL-16 R/B               
1 25400U 98043G   26168.15244029  .00000031  00000+0  31817-4 0  9992
2 25400  98.8364 122.3113 0010951  86.4279 273.8153 14.26068568453160
SL-16 R/B               
1 25407U 98045B   26168.16527150 -.00000241  00000+0 -97482-4 0  9996
2 25407  71.0117 332.3757 0009388 241.6562 118.3615 14.16203194441185
ISS (ZARYA)             
1 25544U 98067A   26168.18949189  .00009113  00000+0  17172-3 0  9996
2 25544  51.6332 300.0813 0004737 195.1146 164.9702 15.49273435571752
CZ-4B R/B               
1 25732U 99025C   26168.06744475  .00000036  00000+0  37865-4 0  9995
2 25732  98.6484 209.9089 0038065  60.0090   0.7228 14.18283502402250
OKEAN-O                 
1 25860U 99039A   26168.07719873  .00000491  00000+0  70973-4 0  9999
2 25860  97.9317 226.8764 0001609  72.4255 287.7132 14.80467115449098
SL-16 R/B               
1 25861U 99039B   26168.09907523  .00000375  00000+0  54261-4 0  9996
2 25861  97.9838 226.9623 0013486 297.2059  62.7779 14.81845031451580
DELTA 2 R/B             
1 25876U 99041E   26167.96308980  .00000490  00000+0  11675-3 0  9991
2 25876  51.7656 264.6920 0500847 281.3544  73.1539 14.12015836377051
HELIOS 1B               
1 25977U 99064A   26167.97689905  .00001126  00000+0  12911-3 0  9999
2 25977  98.1615  73.1106 0002492  91.5488 268.6013 14.88006186700029
TERRA                   
1 25994U 99068A   26168.15893560  .00000317  00000+0  73529-4 0  9991
2 25994  97.9456 217.7063 0001580 189.5468 254.9608 14.61103081409600
SL-16 R/B               
1 26070U 00006B   26167.92389016 -.00000052  00000+0 -19236-5 0  9995
2 26070  71.0020 249.1788 0015515  23.4398 336.7429 14.15834049362602
TITAN 4B R/B            
1 26474U 00047B   26168.12649458  .00002354  00000+0  14870-3 0  9992
2 26474  67.9882 120.7439 0045733 287.1768  72.4377 15.10196811407927
ENVISAT                 
1 27386U 02009A   26168.10027772  .00000064  00000+0  34577-4 0  9995
2 27386  98.3834 119.4207 0001349  88.8980 281.4078 14.39064784273474
IDEFIX & ARIANE 42P R/B 
1 27422U 02021B   26167.84990111  .00000165  00000+0  79281-4 0  9999
2 27422  98.5943 105.3367 0010585 255.0333 104.9678 14.31081947258202
AQUA                    
1 27424U 02022A   26168.19649029  .00000611  00000+0  13132-3 0  9998
2 27424  98.4277 137.4794 0001104  53.1321  36.7458 14.62158088283272
CZ-4B R/B               
1 27432U 02024C   26168.09948685  .00000029  00000+0  37710-4 0  9990
2 27432  98.8700 220.9202 0051205 100.4958 323.7745 14.14564418243298
MIDORI II (ADEOS-II)    
1 27597U 02056A   26168.13806529  .00000195  00000+0  94297-4 0  9999
2 27597  98.7878 127.3974 0002211  77.1788 282.9640 14.29349550224502
H-2A R/B                
1 27601U 02056E   26168.14148579  .00000144  00000+0  65105-4 0  9990
2 27601  98.3312 124.8176 0069177 224.7066 145.3259 14.33821985228364
CZ-4B R/B               
1 28059U 03049C   26168.02494411  .00000224  00000+0  63145-4 0  9998
2 28059  98.6896 166.8650 0046969 289.1061  70.5052 14.55100075201049
CZ-2C R/B               
1 28222U 04012C   26167.77990519  .00088112  00000+0  49561-3 0  9999
2 28222  97.7078 243.3955 0009372 285.2817  74.7413 15.78917579219839
SL-16 R/B               
1 28353U 04021B   26168.01985971 -.00000249  00000+0 -10448-3 0  9997
2 28353  71.0008  24.0403 0007276 255.1788 104.8528 14.14608401136883
CZ-4B R/B               
1 28415U 04035C   26168.06723921  .00006493  00000+0  21899-3 0  9998
2 28415  97.3361 201.1420 0029900 338.4057  21.5920 15.30626036195108
CZ-2C R/B               
1 28480U 04046B   26167.98115764  .00000059  00000+0  37535-4 0  9999
2 28480  98.1945  76.7749 0138474 220.8808 138.1925 14.27026447122668
ARIANE 5 R/B            
1 28499U 04049H   26168.06288419  .00000514  00000+0  63019-4 0  9992
2 28499  98.2720 340.3109 0084514  29.8340 330.7653 14.85448874160546
CZ-2D R/B               
1 28738U 05024B   26168.02804534  .00052152  00000+0  44193-3 0  9996
2 28738  97.3475 187.4483 0003450  54.5797 305.5787 15.69538064155316
ALOS (DAICHI)           
1 28931U 06002A   26168.15858661  .00000866  00000+0  15249-3 0  9997
2 28931  98.1323 123.7260 0001459  57.5521 302.5826 14.70050431 88092
H-2A R/B                
1 28932U 06002B   26168.18636794  .00005575  00000+0  26915-3 0  9996
2 28932  98.2566 324.0147 0049587 262.3080  97.2519 15.18059549109524
RESURS-DK 1             
1 29228U 06021A   26167.90315461  .00001907  00000+0  11317-3 0  9995
2 29228  69.9342 340.2878 0006912 291.8758  68.1672 15.13218071102538
CZ-4B R/B               
1 29507U 06046C   26168.05507228  .00003311  00000+0  16538-3 0  9994
2 29507  97.5448 212.6626 0030977 283.1867  76.5911 15.17783822 75115
CZ-2C R/B               
1 31114U 07010B   26168.05992594  .00000067  00000+0  49609-4 0  9998
2 31114  98.4100 276.4170 0059028   6.4996 353.6934 14.20276159993820
